start=new Date('2023-05-14T00:00:00.000Z').valueOf();
sats=[{"APOAPSIS":"548.107","INCLINATION":"53.0543","GP_ID":"231776807","MEAN_ELEMENT_THEORY":"SGP4","ARG_OF_PERICENTER":"82.7687","PERIAPSIS":"546.488","EPHEMERIS_TYPE":"0","OBJECT_NAME":"STARLINK-1228","TLE_LINE1":"1 45188U 20012L   23133.78276623  .00018836  00000-0  12810-2 0  9994","TIME_SYSTEM":"UTC","NORAD_CAT_ID":"45188","MEAN_MOTION_DDOT":"0.0000000000000","SITE":"AFETR","RA_OF_ASC_NODE":"314.5409","REF_FRAME":"TEME","MEAN_ANOMALY":"277.3434","ECCENTRICITY":"0.00011690","FILE":"3907148","RCS_SIZE":"LARGE","CENTER_NAME":"EARTH","PERIOD":"95.594","SEMIMAJOR_AXIS":"6925.432","MEAN_MOTION_DOT":"0.00018836","REV_AT_EPOCH":"17996","LAUNCH_DATE":"2020-02-17","ELEMENT_SET_NO":"999","TLE_LINE2":"2 45188  53.0543 314.5409 0001169  82.7687 277.3434 15.06372717179960","CLASSIFICATION_TYPE":"U","DECAY_DATE":null,"EPOCH":"2023-05-13T18:47:11.002272","MEAN_MOTION":"15.06372717","OBJECT_TYPE":"PAYLOAD","BSTAR":"0.00128100000000","OBJECT_ID":"2020-012L","COUNTRY_CODE":"US"},{"RA_OF_ASC_NODE":"354.0584","SITE":"AFETR","MEAN_MOTION_DDOT":"0.0000000000000","MEAN_ANOMALY":"282.2610","REF_FRAME":"TEME","ECCENTRICITY":"0.00009930","FILE":"3907148","RCS_SIZE":"LARGE","PERIOD":"95.593","CENTER_NAME":"EARTH","OBJECT_NAME":"STARLINK-1230","TLE_LINE1":"1 45189U 20012M   23133.88966383  .00017443  00000-0  11872-2 0  9995","TIME_SYSTEM":"UTC","NORAD_CAT_ID":"45189","ARG_OF_PERICENTER":"77.8491","PERIAPSIS":"546.546","EPHEMERIS_TYPE":"0","APOAPSIS":"547.922","INCLINATION":"53.0548","GP_ID":"231777042","MEAN_ELEMENT_THEORY":"SGP4","BSTAR":"0.00118720000000","OBJECT_TYPE":"PAYLOAD","OBJECT_ID":"2020-012M","COUNTRY_CODE":"US","DECAY_DATE":null,"EPOCH":"2023-05-13T21:21:06.954912","MEAN_MOTION":"15.06393391","TLE_LINE2":"2 45189  53.0548 354.0584 0000993  77.8491 282.2610 15.06393391176690","CLASSIFICATION_TYPE":"U","SEMIMAJOR_AXIS":"6925.369","MEAN_MOTION_DOT":"0.00017443","ELEMENT_SET_NO":"999","LAUNCH_DATE":"2020-02-17","REV_AT_EPOCH":"17669"},{"MEAN_ANOMALY":"286.0162","REF_FRAME":"TEME","RA_OF_ASC_NODE":"314.5730","SITE":"AFETR","MEAN_MOTION_DDOT":"0.0000000000000","PERIOD":"95.592","CENTER_NAME":"EARTH","ECCENTRICITY":"0.00013490","FILE":"3907148","RCS_SIZE":"LARGE","TLE_LINE1":"1 45190U 20012N   23133.77539016  .00006669  00000-0  46627-3 0  9999","OBJECT_NAME":"STARLINK-1234","NORAD_CAT_ID":"45190","TIME_SYSTEM":"UTC","ARG_OF_PERICENTER":"74.0976","PERIAPSIS":"546.295","EPHEMERIS_TYPE":"0","APOAPSIS":"548.163","INCLINATION":"53.0543","GP_ID":"231775305","MEAN_ELEMENT_THEORY":"SGP4","OBJECT_ID":"2020-012N","OBJECT_TYPE":"PAYLOAD","BSTAR":"0.00046627000000","COUNTRY_CODE":"US","DECAY_DATE":null,"MEAN_MOTION":"15.06394967","EPOCH":"2023-05-13T18:36:33.709824","TLE_LINE2":"2 45190  53.0543 314.5730 0001349  74.0976 286.0162 15.06394967179916","CLASSIFICATION_TYPE":"U","MEAN_MOTION_DOT":"0.00006669","SEMIMAJOR_AXIS":"6925.364","LAUNCH_DATE":"2020-02-17","ELEMENT_SET_NO":"999","REV_AT_EPOCH":"17991"},{"MEAN_MOTION":"15.06393969","EPOCH":"2023-05-13T21:31:43.718592","DECAY_DATE":null,"COUNTRY_CODE":"US","OBJECT_ID":"2020-012P","OBJECT_TYPE":"PAYLOAD","BSTAR":"0.00033606000000","ELEMENT_SET_NO":"999","LAUNCH_DATE":"2020-02-17","REV_AT_EPOCH":"17668","MEAN_MOTION_DOT":"0.00004727","SEMIMAJOR_AXIS":"6925.367","CLASSIFICATION_TYPE":"U","TLE_LINE2":"2 45191  53.0548 354.0206 0001122  68.7816 291.3293 15.06393969176687","NORAD_CAT_ID":"45191","TIME_SYSTEM":"UTC","TLE_LINE1":"1 45191U 20012P   23133.89703378  .00004727  00000-0  33606-3 0  9993","OBJECT_NAME":"STARLINK-1236","CENTER_NAME":"EARTH","PERIOD":"95.593","FILE":"3907148","RCS_SIZE":"LARGE","ECCENTRICITY":"0.00011220","MEAN_ANOMALY":"291.3293","REF_FRAME":"TEME","MEAN_MOTION_DDOT":"0.0000000000000","SITE":"AFETR","RA_OF_ASC_NODE":"354.0206","MEAN_ELEMENT_THEORY":"SGP4","INCLINATION":"53.0548","GP_ID":"231775548","APOAPSIS":"548.009","PERIAPSIS":"546.455","EPHEMERIS_TYPE":"0","ARG_OF_PERICENTER":"68.7816"},{"FILE":"3907078","RCS_SIZE":"LARGE","ECCENTRICITY":"0.00011580","PERIOD":"95.592","CENTER_NAME":"EARTH","SITE":"AFETR","RA_OF_ASC_NODE":"354.1410","MEAN_MOTION_DDOT":"0.0000000000000","REF_FRAME":"TEME","MEAN_ANOMALY":"285.5692","TIME_SYSTEM":"UTC","NORAD_CAT_ID":"45192","OBJECT_NAME":"STARLINK-1237","TLE_LINE1":"1 45192U 20012Q   23133.87123967  .00018608  00000-0  12649-2 0  9998","PERIAPSIS":"546.421","EPHEMERIS_TYPE":"0","ARG_OF_PERICENTER":"74.5425","MEAN_ELEMENT_THEORY":"SGP4","INCLINATION":"53.0538","GP_ID":"231755167","APOAPSIS":"548.025","COUNTRY_CODE":"US","BSTAR":"0.00126490000000","OBJECT_TYPE":"PAYLOAD","OBJECT_ID":"2020-012Q","EPOCH":"2023-05-13T20:54:35.107488","MEAN_MOTION":"15.06397028","DECAY_DATE":null,"CLASSIFICATION_TYPE":"U","TLE_LINE2":"2 45192  53.0538 354.1410 0001158  74.5425 285.5692 15.06397028178539","REV_AT_EPOCH":"17853","LAUNCH_DATE":"2020-02-17","ELEMENT_SET_NO":"999","SEMIMAJOR_AXIS":"6925.358","MEAN_MOTION_DOT":"0.00018608"},{"ARG_OF_PERICENTER":"123.7724","EPHEMERIS_TYPE":"0","PERIAPSIS":"546.260","GP_ID":"231776544","INCLINATION":"53.0546","APOAPSIS":"548.167","MEAN_ELEMENT_THEORY":"SGP4","MEAN_MOTION_DDOT":"0.0000000000000","SITE":"AFETR","RA_OF_ASC_NODE":"354.1890","REF_FRAME":"TEME","MEAN_ANOMALY":"236.3396","FILE":"3907148","RCS_SIZE":"LARGE","ECCENTRICITY":"0.00013770","CENTER_NAME":"EARTH","PERIOD":"95.592","OBJECT_NAME":"STARLINK-1239","TLE_LINE1":"1 45193U 20012R   23133.86017050  .00008076  00000-0  56045-3 0  9990","TIME_SYSTEM":"UTC","NORAD_CAT_ID":"45193","CLASSIFICATION_TYPE":"U","TLE_LINE2":"2 45193  53.0546 354.1890 0001377 123.7724 236.3396 15.06399911179419","SEMIMAJOR_AXIS":"6925.349","MEAN_MOTION_DOT":"0.00008076","LAUNCH_DATE":"2020-02-17","REV_AT_EPOCH":"17941","ELEMENT_SET_NO":"999","BSTAR":"0.00056045000000","OBJECT_TYPE":"PAYLOAD","OBJECT_ID":"2020-012R","COUNTRY_CODE":"US","DECAY_DATE":null,"EPOCH":"2023-05-13T20:38:38.731200","MEAN_MOTION":"15.06399911"},{"COUNTRY_CODE":"US","OBJECT_ID":"2020-012S","BSTAR":"0.00023228000000","OBJECT_TYPE":"PAYLOAD","MEAN_MOTION":"15.06392310","EPOCH":"2023-05-13T20:43:58.161504","DECAY_DATE":null,"CLASSIFICATION_TYPE":"U","TLE_LINE2":"2 45194  53.0539 354.1775 0001293  68.8121 291.3006 15.06392310179360","LAUNCH_DATE":"2020-02-17","REV_AT_EPOCH":"17936","ELEMENT_SET_NO":"999","MEAN_MOTION_DOT":"0.00003179","SEMIMAJOR_AXIS":"6925.372","PERIOD":"95.593","CENTER_NAME":"EARTH","RCS_SIZE":"LARGE","FILE":"3907148","ECCENTRICITY":"0.00012930","MEAN_ANOMALY":"291.3006","REF_FRAME":"TEME","SITE":"AFETR","RA_OF_ASC_NODE":"354.1775","MEAN_MOTION_DDOT":"0.0000000000000","NORAD_CAT_ID":"45194","TIME_SYSTEM":"UTC","TLE_LINE1":"1 45194U 20012S   23133.86386761  .00003179  00000-0  23228-3 0  9995","OBJECT_NAME":"STARLINK-1240","EPHEMERIS_TYPE":"0","PERIAPSIS":"546.342","ARG_OF_PERICENTER":"68.8121","MEAN_ELEMENT_THEORY":"SGP4","INCLINATION":"53.0539","GP_ID":"231775806","APOAPSIS":"548.133"},{"OBJECT_NAME":"STARLINK-1241","TLE_LINE1":"1 45195U 20012T   23133.82340783  .00174474  00000-0  32859-2 0  9992","TIME_SYSTEM":"UTC","NORAD_CAT_ID":"45195","MEAN_MOTION_DDOT":"0.0000000000000","SITE":"AFETR","RA_OF_ASC_NODE":"319.5434","MEAN_ANOMALY":"134.9874","REF_FRAME":"TEME","FILE":"3907148","RCS_SIZE":"LARGE","ECCENTRICITY":"0.00067950","CENTER_NAME":"EARTH","PERIOD":"93.060","GP_ID":"231776049","INCLINATION":"53.0461","APOAPSIS":"428.983","MEAN_ELEMENT_THEORY":"SGP4","ARG_OF_PERICENTER":"225.0582","EPHEMERIS_TYPE":"0","PERIAPSIS":"419.738","DECAY_DATE":null,"EPOCH":"2023-05-13T19:45:42.436512","MEAN_MOTION":"15.47392016","OBJECT_TYPE":"PAYLOAD","BSTAR":"0.00328590000000","OBJECT_ID":"2020-012T","COUNTRY_CODE":"US","SEMIMAJOR_AXIS":"6802.496","MEAN_MOTION_DOT":"0.00174474","REV_AT_EPOCH":"17995","LAUNCH_DATE":"2020-02-17","ELEMENT_SET_NO":"999","CLASSIFICATION_TYPE":"U","TLE_LINE2":"2 45195  53.0461 319.5434 0006795 225.0582 134.9874 15.47392016179950"},{"NORAD_CAT_ID":"45196","TIME_SYSTEM":"UTC","TLE_LINE1":"1 45196U 20012U   23133.91177992  .00016822  00000-0  11457-2 0  9996","OBJECT_NAME":"STARLINK-1244","CENTER_NAME":"EARTH","PERIOD":"95.593","ECCENTRICITY":"0.00011610","FILE":"3907148","RCS_SIZE":"LARGE","REF_FRAME":"TEME","MEAN_ANOMALY":"268.8031","MEAN_MOTION_DDOT":"0.0000000000000","SITE":"AFETR","RA_OF_ASC_NODE":"353.9578","MEAN_ELEMENT_THEORY":"SGP4","APOAPSIS":"548.037","GP_ID":"231776808","INCLINATION":"53.0546","EPHEMERIS_TYPE":"0","PERIAPSIS":"546.429","ARG_OF_PERICENTER":"91.3091","MEAN_MOTION":"15.06393671","EPOCH":"2023-05-13T21:52:57.785088","DECAY_DATE":null,"COUNTRY_CODE":"US","OBJECT_ID":"2020-012U","OBJECT_TYPE":"PAYLOAD","BSTAR":"0.00114570000000","REV_AT_EPOCH":"17952","LAUNCH_DATE":"2020-02-17","ELEMENT_SET_NO":"999","MEAN_MOTION_DOT":"0.00016822","SEMIMAJOR_AXIS":"6925.368","TLE_LINE2":"2 45196  53.0546 353.9578 0001161  91.3091 268.8031 15.06393671179525","CLASSIFICATION_TYPE":"U"},{"TLE_LINE2":"2 45197  53.0556 354.0102 0001070  87.5974 272.5138 15.06389842179444","CLASSIFICATION_TYPE":"U","REV_AT_EPOCH":"17944","LAUNCH_DATE":"2020-02-17","ELEMENT_SET_NO":"999","SEMIMAJOR_AXIS":"6925.380","MEAN_MOTION_DOT":"0.00016664","COUNTRY_CODE":"US","OBJECT_TYPE":"PAYLOAD","BSTAR":"0.00113530000000","OBJECT_ID":"2020-012V","EPOCH":"2023-05-13T21:37:02.278848","MEAN_MOTION":"15.06389842","DECAY_DATE":null,"EPHEMERIS_TYPE":"0","PERIAPSIS":"546.504","ARG_OF_PERICENTER":"87.5974","MEAN_ELEMENT_THEORY":"SGP4","APOAPSIS":"547.986","INCLINATION":"53.0556","GP_ID":"231777043","ECCENTRICITY":"0.00010700","RCS_SIZE":"LARGE","FILE":"3907148","PERIOD":"95.593","CENTER_NAME":"EARTH","RA_OF_ASC_NODE":"354.0102","SITE":"AFETR","MEAN_MOTION_DDOT":"0.0000000000000","MEAN_ANOMALY":"272.5138","REF_FRAME":"TEME","TIME_SYSTEM":"UTC","NORAD_CAT_ID":"45197","OBJECT_NAME":"STARLINK-1269","TLE_LINE1":"1 45197U 20012V   23133.90072082  .00016664  00000-0  11353-2 0  9999"}];
